C/2013 U2 (Holvorcem),e,43.1111,6.9666,107.4562,1035,0.0000296,0.99505764,0.0000,10/26.3465/2014,2000,g  7.5,4.0
# From MPC 94279
C/2013 UQ4 (Catalina),e,145.2540,317.6688,23.3768,60.88520,0.0020746,0.98221807,0.0000,07/05.9170/2014,2000,g 13.5,4.0
# From MPEC 2015-N31
C/2013 US10 (Catalina),h,11/15.7196/2015,148.8786,186.1443,340.3585,1.000320,0.822973,2000,4.4,4.0
# From MPC 92273
C/2013 V1 (Boattini),h,04/21.2258/2014,65.3002,72.8142,48.0447,1.001352,1.661319,2000,10.5,4.0
# From MPEC 2015-N31
C/2013 V2 (Borisov),h,10/14.3636/2014,37.8535,48.4122,94.4898,1.003759,3.508086,2000,7.0,4.0
# From MPC 88329
C/2013 V3 (Nevski),e,32.1335,100.9208,339.6354,12.67488,0.0218418,0.89054391,13.5472,07/12.0/2015,2000,g 14.0,4.0
# From MPC 94671
C/2013 V4 (Catalina),h,10/07.5645/2015,67.8537,55.6201,40.4459,1.002621,5.185347,2000,6.0,4.0
# From MPC 94279
C/2013 V5 (Oukaimeden),e,154.8848,278.6247,314.5871,450.0999,0.0001032,0.99860989,0.0000,09/28.2008/2014,2000,g  9.0,4.0
# From MPC 91613
P/2013 W1 (PANSTARRS),e,4.6995,117.8555,1.3423,3.485639,0.1514539,0.59367653,74.3423,07/12.0/2015,2000,g 17.5,4.0
# From MPC 94279
C/2013 W2 (PANSTARRS),e,4.6528,179.0152,307.3804,10.56793,0.0286892,0.57992090,5.5193,07/12.0/2015,2000,g 13.5,2.0
# From MPC 94671
C/2013 X1 (PANSTARRS),h,04/20.7330/2016,163.2303,130.9501,164.4610,1.000938,1.314166,2000,10.5,2.0
# From MPC 90768
C/2013 Y2 (PANSTARRS),e,29.4097,243.3926,308.8687,224.8250,0.0002924,0.99146319,0.0000,06/13.6951/2014,2000,g 12.0,4.0
# From MPC 87480
P/2013 YG46 (Spacewatch),e,7.8410,49.1975,241.8205,3.284793,0.1655549,0.45518917,266.2137,07/12.0/2015,2000,g 10.0,4.0
# From MPC 89728
P/2014 A2 (Hill),e,24.5131,106.6720,356.2248,5.918159,0.0684580,0.64929852,42.5675,07/12.0/2015,2000,g 15.0,4.0
# From MPC 92981
P/2014 A3 (PANSTARRS),e,13.6787,230.4799,212.7353,4.663802,0.0978575,0.24046384,80.0717,07/12.0/2015,2000,g 12.0,4.0
# From MPEC 2015-N31
C/2014 A4 (SONEAR),h,09/05.8551/2015,121.3578,29.7273,356.7863,1.000783,4.180293,2000,6.0,4.0
# From MPC 93585
C/2014 A5 (PANSTARRS),e,31.9850,310.0854,182.4184,92.66222,0.0011050,0.94820753,0.3693,07/12.0/2015,2000,g 10.0,4.0
# From MPEC 2015-E14
C/2014 AA52 (Catalina),h,02/27.6503/2015,105.2110,330.4930,292.2632,1.000574,2.002581,2000,10.0,4.0
# From MPC 93585
C/2014 B1 (Schwartz),h,09/07.2647/2017,28.3663,161.4018,345.6481,1.003846,9.565898,2000,4.0,4.0
# From MPC 88696
P/2014 C1 (TOTAS),e,2.6823,167.9430,24.2367,3.070949,0.1831451,0.45025548,104.2980,07/12.0/2015,2000,g 15.5,4.0
# From MPC 88697
C/2014 C2 (STEREO),e,135.4885,283.3435,56.0016,620.4769,0.0000638,0.99917557,0.0000,02/18.2102/2014,2000,g 18.0,4.0
# From MPC 90272
C/2014 C3 (NEOWISE),e,151.7936,204.5108,345.9387,106.8197,0.0008927,0.98257610,0.0000,01/16.6449/2014,2000,g 14.0,4.0
# From MPC 91614
P/2014 E1 (Larson),e,15.9782,39.0774,185.8392,3.713549,0.1377274,0.42345253,57.2828,07/12.0/2015,2000,g 14.0,4.0
# From MPC 94671
C/2014 E2 (Jacques),e,156.3890,56.4146,344.0558,781.2984,0.0000451,0.99915047,0.0000,07/02.5400/2014,2000,g  7.1,4.4
# From MPC 90769
C/2014 F1 (Hill),e,108.2484,239.8868,8.2287,2006,0.0000110,0.99825716,0.0000,10/04.6834/2013,2000,g 10.5,4.0
# From MPC 94671
C/2014 F2 (Tenagra),e,119.0603,267.4497,86.0698,147.2749,0.0005515,0.97070386,0.0000,01/02.4826/2015,2000,g  9.5,4.0
# From MPC 94280
C/2014 F3 (Sheppard-Trujillo),e,6.4819,327.5408,1.1740,16.14827,0.0151885,0.64556986,327.7337,07/12.0/2015,2000,g  6.0,4.0
# From MPC 90272
C/2014 G1 (PANSTARRS),e,165.6380,337.9515,77.0473,805.1991,0.0000431,0.99320885,0.0000,11/06.2665/2013,2000,g  9.0,4.0
# From MPC 94280
C/2014 G3 (PANSTARRS),e,155.8231,4.5460,147.8302,55.47371,0.0023855,0.91530999,0.3799,07/12.0/2015,2000,g  9.0,4.0
# From MPC 88697
C/2014 H1 (Christensen),e,99.9303,34.6957,169.1947,136.0297,0.0006212,0.98427372,0.0000,04/15.3086/2014,2000,g 14.5,4.0
# From MPC 89010
C/2014 J1 (Catalina),e,159.6942,41.9888,195.4914,8.655609,0.0387042,0.80267983,14.9795,07/12.0/2015,2000,g 17.0,4.0
# From MPC 93585
P/2014 L2 (NEOWISE),e,5.1845,149.4072,182.7564,6.320720,0.0620232,0.64650787,22.4306,07/12.0/2015,2000,g 12.0,4.0
# From MPC 90769
P/2014 L3 (Hill),e,6.2640,115.5626,178.5894,8.163694,0.0422546,0.77295915,15.9918,07/12.0/2015,2000,g 16.0,4.0
# From MPC 91614
C/2014 L5 (Lemmon),h,11/26.2599/2014,122.8130,35.6955,45.6072,1.002796,6.203103,2000,8.0,4.0
# From MPEC 2015-N31
C/2014 M1 (PANSTARRS),h,08/26.5005/2015,160.1763,234.6743,336.7413,1.002367,5.576807,2000,9.0,4.0
# From MPC 90272
C/2014 M2 (Christensen),e,32.4012,245.3135,40.7050,1024,0.0000301,0.99325387,0.0000,07/17.8860/2014,2000,g  6.0,4.0
# From MPC 90769
C/2014 M3 (Catalina),e,164.9071,80.3716,93.7255,137.7487,0.0006096,0.98233159,0.0000,06/21.8961/2014,2000,g 14.0,4.0
# From MPC 91614
P/2014 M4 (PANSTARRS),e,3.3449,265.0535,145.3214,5.814583,0.0702953,0.59561724,13.7987,07/12.0/2015,2000,g 15.0,4.0
# From MPC 91614
P/2014 MG4 (Spacewatch-PANSTARRS),e,9.3677,311.8522,298.7802,5.011940,0.0878406,0.25915815,66.6611,07/12.0/2015,2000,g  9.5,4.0
# From MPC 93586
C/2014 N2 (PANSTARRS),e,133.0135,143.8054,237.8745,3847,0.0000041,0.99943208,0.0000,10/08.2459/2014,2000,g 14.5,4.0
# From MPEC 2015-N31
C/2014 N3 (NEOWISE),e,61.6380,19.9269,353.5675,5722,0.0000023,0.99932148,0.0000,03/13.2117/2015,2000,g  7.0,4.0
# From MPC 90770
P/2014 O3 (PANSTARRS),e,7.8066,87.6967,204.4125,7.544346,0.0475633,0.38481988,21.4083,07/12.0/2015,2000,g 10.5,4.0
# From MPEC 2015-N31
C/2014 OE4 (PANSTARRS),e,81.3634,240.4125,65.7137,7624,0.0000015,0.99918094,0.0000,12/10.4627/2016,2000,g 11.0,2.0
# From MPC 94280
C/2014 Q1 (PANSTARRS),e,43.1089,8.7618,120.0535,1041,0.0000293,0.99969791,0.0000,07/06.5143/2015,2000,g  8.0,4.0
# From MPEC 2015-N31
C/2014 Q2 (Lovejoy),e,80.3012,94.9759,12.3956,563.5806,0.0000737,0.99771039,0.0000,01/30.0671/2015,2000,g  2.7,10.0
# From MPC 90770
C/2014 QU2 (PANSTARRS),e,124.8176,333.0006,320.4501,246.5673,0.0002546,0.99098507,0.0000,07/09.8774/2014,2000,g 15.0,4.0
# From MPC 94280
C/2014 Q3 (Borisov),e,89.9473,63.1318,47.3851,28.41340,0.0065076,0.94201769,1.5288,07/12.0/2015,2000,g -0.5,20.0
# From MPC 91615
C/2014 Q6 (PANSTARRS),e,49.7985,326.6549,2.5279,9699,0.0000010,0.99956465,0.0000,01/06.3374/2015,2000,g  9.5,4.0
# From MPEC 2015-N31
C/2014 R1 (Borisov),e,9.9326,104.0520,55.6558,179.4972,0.0004098,0.99250365,0.0000,11/19.2433/2014,2000,g  6.5,8.8
# From MPC 94672
C/2014 R3 (PANSTARRS),h,08/07.3807/2016,90.8366,334.1151,113.3688,1.000924,7.275643,2000,6.5,4.0
# From MPC 92982
C/2014 R4 (Gibbs),e,42.4077,279.5217,180.8294,2252,0.0000092,0.99919280,0.0000,10/21.4745/2014,2000,g 13.0,4.0
# From MPC 91615
P/2014 R5 (Lemmon-PANSTARRS),e,1.0882,126.5430,213.8253,4.062248,0.1203800,0.41261216,46.9004,07/12.0/2015,2000,g 15.0,4.0
# From MPC 92274
C/2014 S1 (PANSTARRS),h,10/30.9872/2013,123.8091,352.6546,288.8566,1.002060,8.138310,2000,7.0,4.0
# From MPC 92274
C/2014 S2 (PANSTARRS),e,64.6691,8.1219,87.8053,170.6025,0.0004423,0.98768688,0.0000,12/09.7871/2015,2000,g 10.0,4.0
# From MPC 90770
C/2014 S3 (PANSTARRS),e,169.3214,356.0530,293.1494,88.34017,0.0011870,0.97680301,0.0000,08/13.3493/2014,2000,g 17.0,4.0
# From MPC 91615
C/2014 TG64 (Catalina),e,22.2858,50.2887,294.7608,14.86158,0.0172031,0.78207057,7.0892,07/12.0/2015,2000,g 13.0,4.0
# From MPC 92274
P/2014 U2 (Kowalski),e,7.4977,356.1684,35.2774,2.933935,0.1961229,0.60323536,54.4794,07/12.0/2015,2000,g 19.5,4.0
# From MPC 91616
C/2014 U3 (Kowalski),e,152.9930,163.5818,51.3135,771.7538,0.0000460,0.99668467,0.0000,09/03.5250/2014,2000,g 14.5,4.0
# From MPC 91616
P/2014 U4 (PANSTARRS),e,6.4568,12.0383,347.7642,3.485390,0.1514701,0.47097008,51.8092,07/12.0/2015,2000,g 18.0,4.0
# From MPEC 2015-N31
P/2014 V1 (PANSTARRS),e,22.4710,166.2624,177.7145,5.497620,0.0764614,0.53277483,13.1835,07/12.0/2015,2000,g 14.0,4.0
# From MPC 93586
P/2014 W1 (PANSTARRS),e,8.8065,247.2376,150.4308,4.412509,0.1063349,0.39653048,36.6485,07/12.0/2015,2000,g 15.5,4.0
# From MPC 94672
C/2014 W2 (PANSTARRS),e,81.9973,69.9615,85.0040,1517,0.0000167,0.99823935,0.0000,03/10.4692/2016,2000,g  7.5,4.0
# From MPC 92274
C/2014 W3 (PANSTARRS),h,02/26.6516/2014,90.0809,286.3691,158.8657,1.005184,6.063745,2000,8.5,4.0
# From MPC 93586
P/2014 W4 (PANSTARRS),e,15.2749,33.3534,67.4007,6.586635,0.0583054,0.35305728,350.0632,07/12.0/2015,2000,g 11.0,4.0
# From MPC 94672
C/2014 W6 (Catalina),h,03/19.0245/2015,53.5659,338.1311,209.8597,1.001271,3.087638,2000,10.5,4.0
# From MPC 92982
C/2014 W7 (Christensen),e,98.3137,151.2610,33.2443,11.37617,0.0256868,0.86917077,4.9415,07/12.0/2015,2000,g 16.0,4.0
# From MPC 91616
C/2014 W8 (PANSTARRS),e,41.9421,224.8465,228.0458,193.4019,0.0003664,0.97403028,0.0000,09/10.3067/2015,2000,g 11.0,4.0
# From MPC 94672
C/2014 W9 (PANSTARRS),e,10.6305,21.2878,167.7756,11.16595,0.0264156,0.85782521,3.8643,07/12.0/2015,2000,g 16.0,4.0
# From MPC 94672
C/2014 W11 (PANSTARRS),e,12.7046,295.9329,225.6324,9.786323,0.0321940,0.64983385,0.7964,07/12.0/2015,2000,g 10.0,4.0
# From MPC 93587
P/2014 W12 (Gibbs),e,8.5132,299.2695,37.0067,3.518983,0.1493064,0.52373498,35.6649,07/12.0/2015,2000,g 15.0,4.0
# From MPC 94281
P/2014 X1 (Elenin),e,25.9711,61.5555,34.3707,6.258954,0.0629436,0.71005807,11.6617,07/12.0/2015,2000,g 15.0,4.0
# From MPEC 2015-N31
C/2014 XB8 (PANSTARRS),e,149.7677,37.5001,351.6978,363.8886,0.0001420,0.99173763,0.0000,04/06.4927/2015,2000,g 13.5,4.0
# From MPC 94672
C/2014 Y1 (PANSTARRS),h,01/17.6348/2016,14.9240,19.4910,182.2640,1.002083,2.241777,2000,9.5,4.0
# From MPEC 2015-N31
C/2015 A1 (PANSTARRS),e,80.3663,341.0869,244.8812,20.15282,0.0108943,0.90097828,1.3175,07/12.0/2015,2000,g 14.5,4.0
# From MPC 93587
C/2015 A2 (PANSTARRS),p,08/01.8353/2015,109.1696,208.8369,5.341055,258.5042,2000,10.5,4.0
# From MPC 92275
P/2015 A3 (PANSTARRS),e,172.5197,277.0978,249.2754,7.854111,0.0447774,0.85285158,6.2470,07/12.0/2015,2000,g 20.0,4.0
# From MPC 94281
C/2015 B1 (PANSTARRS),e,18.0344,353.3551,188.3193,9.658704,0.0328342,0.38132936,357.6904,07/12.0/2015,2000,g  8.5,4.0
# From MPC 94672
